{
  "type": "FeatureCollection",
  "features": [
    {
      "type": "Feature",
      "properties": {
        "norad_id": 66468,
        "name": "STARLINK-35331",
        "group": "last-30-days",
        "lat": 16.39601291495899,
        "lon": 78.35779156140896,
        "alt_km": 441.58914615592676,
        "timestamp": "2025-12-14T16:47:39.435695+00:00",
        "meta_object_name": "STARLINK-35331",
        "meta_object_id": "2025-262N",
        "meta_epoch": "2025-12-13T22:00:00.999936",
        "meta_mean_motion": 15.40670994,
        "meta_eccentricity": 0.00014962,
        "meta_inclination": 43.0007,
        "meta_ra_of_asc_node": 64.4651,
        "meta_arg_of_pericenter": 285.7878,
        "meta_mean_anomaly": 70.2565,
        "meta_ephemeris_type": 0,
        "meta_classification_type": "U",
        "meta_norad_cat_id": 66468,
        "meta_element_set_no": 999,
        "meta_rev_at_epoch": 582,
        "meta_bstar": 4.7829805e-05,
        "meta_mean_motion_dot": 1.693e-05,
        "meta_mean_motion_ddot": 0,
        "tle_line1": "1 66468U 25262N   25347.91667824  .00001693  00000+0  47830-4 0  9995",
        "tle_line2": "2 66468  43.0007  64.4651 0001496 285.7878  70.2565 15.40670994  5822"
      },
      "geometry": {
        "type": "Point",
        "coordinates": [
          78.35779156140896,
          16.39601291495899
        ]
      }
    },
    {
      "type": "Feature",
      "properties": {
        "norad_id": 66469,
        "name": "STARLINK-35451",
        "group": "last-30-days",
        "lat": 8.897995774801345,
        "lon": -130.07168844478673,
        "alt_km": 412.48794966045807,
        "timestamp": "2025-12-14T16:47:39.435707+00:00",
        "meta_object_name": "STARLINK-35451",
        "meta_object_id": "2025-262P",
        "meta_epoch": "2025-12-12T13:03:41.779584",
        "meta_mean_motion": 15.50210236,
        "meta_eccentricity": 0.00011033,
        "meta_inclination": 42.9999,
        "meta_ra_of_asc_node": 72.2116,
        "meta_arg_of_pericenter": 239.0773,
        "meta_mean_anomaly": 120.9979,
        "meta_ephemeris_type": 0,
        "meta_classification_type": "U",
        "meta_norad_cat_id": 66469,
        "meta_element_set_no": 999,
        "meta_rev_at_epoch": 553,
        "meta_bstar": 0.0029076405,
        "meta_mean_motion_dot": 0.00171764,
        "meta_mean_motion_ddot": 0,
        "tle_line1": "1 66469U 25262P   25346.54423356  .00171764  00000+0  29076-2 0  9991",
        "tle_line2": "2 66469  42.9999  72.2116 0001103 239.0773 120.9979 15.50210236  5535"
      },
      "geometry": {
        "type": "Point",
        "coordinates": [
          -130.07168844478673,
          8.897995774801345
        ]
      }
    },
    {
      "type": "Feature",
      "properties": {
        "norad_id": 66470,
        "name": "STARLINK-35655",
        "group": "last-30-days",
        "lat": 24.160828306674734,
        "lon": 88.69767982242928,
        "alt_km": 440.80095145806627,
        "timestamp": "2025-12-14T16:47:39.435718+00:00",
        "meta_object_name": "STARLINK-35655",
        "meta_object_id": "2025-262Q",
        "meta_epoch": "2025-12-13T22:00:00.999936",
        "meta_mean_motion": 15.40638249,
        "meta_eccentricity": 0.0001493,
        "meta_inclination": 43.0007,
        "meta_ra_of_asc_node": 64.4348,
        "meta_arg_of_pericenter": 269.2202,
        "meta_mean_anomaly": 99.2822,
        "meta_ephemeris_type": 0,
        "meta_classification_type": "U",
        "meta_norad_cat_id": 66470,
        "meta_element_set_no": 999,
        "meta_rev_at_epoch": 582,
        "meta_bstar": 0.00074227127,
        "meta_mean_motion_dot": 0.00030764,
        "meta_mean_motion_ddot": 0,
        "tle_line1": "1 66470U 25262Q   25347.91667824  .00030764  00000+0  74227-3 0  9998",
        "tle_line2": "2 66470  43.0007  64.4348 0001493 269.2202  99.2822 15.40638249  5827"
      },
      "geometry": {
        "type": "Point",
        "coordinates": [
          88.69767982242928,
          24.160828306674734
        ]
      }
    },
    {
      "type": "Feature",
      "properties": {
        "norad_id": 66471,
        "name": "STARLINK-35569",
        "group": "last-30-days",
        "lat": 31.176900984910453,
        "lon": 100.37934336561145,
        "alt_km": 439.74345720333713,
        "timestamp": "2025-12-14T16:47:39.435729+00:00",
        "meta_object_name": "STARLINK-35569",
        "meta_object_id": "2025-262R",
        "meta_epoch": "2025-12-13T22:00:00.999936",
        "meta_mean_motion": 15.40683621,
        "meta_eccentricity": 0.00012401,
        "meta_inclination": 43.0006,
        "meta_ra_of_asc_node": 64.4036,
        "meta_arg_of_pericenter": 266.7938,
        "meta_mean_anomaly": 114.1462,
        "meta_ephemeris_type": 0,
        "meta_classification_type": "U",
        "meta_norad_cat_id": 66471,
        "meta_element_set_no": 999,
        "meta_rev_at_epoch": 582,
        "meta_bstar": 5.3101297e-05,
        "meta_mean_motion_dot": 1.914e-05,
        "meta_mean_motion_ddot": 0,
        "tle_line1": "1 66471U 25262R   25347.91667824  .00001914  00000+0  53101-4 0  9993",
        "tle_line2": "2 66471  43.0006  64.4036 0001240 266.7938 114.1462 15.40683621  5820"
      },
      "geometry": {
        "type": "Point",
        "coordinates": [
          100.37934336561145,
          31.176900984910453
        ]
      }
    },
    {
      "type": "Feature",
      "properties": {
        "norad_id": 66472,
        "name": "STARLINK-35567",
        "group": "last-30-days",
        "lat": 41.025590826143706,
        "lon": 128.845742568399,
        "alt_km": 437.97917376709574,
        "timestamp": "2025-12-14T16:47:39.435740+00:00",
        "meta_object_name": "STARLINK-35567",
        "meta_object_id": "2025-262S",
        "meta_epoch": "2025-12-13T22:00:00.999936",
        "meta_mean_motion": 15.40681573,
        "meta_eccentricity": 9.395e-05,
        "meta_inclination": 43.0006,
        "meta_ra_of_asc_node": 64.3435,
        "meta_arg_of_pericenter": 286.6798,
        "meta_mean_anomaly": 119.1142,
        "meta_ephemeris_type": 0,
        "meta_classification_type": "U",
        "meta_norad_cat_id": 66472,
        "meta_element_set_no": 999,
        "meta_rev_at_epoch": 582,
        "meta_bstar": 0.00052016139,
        "meta_mean_motion_dot": 0.00021472,
        "meta_mean_motion_ddot": 0,
        "tle_line1": "1 66472U 25262S   25347.91667824  .00021472  00000+0  52016-3 0  9998",
        "tle_line2": "2 66472  43.0006  64.3435 0000939 286.6798 119.1142 15.40681573  5826"
      },
      "geometry": {
        "type": "Point",
        "coordinates": [
          128.845742568399,
          41.025590826143706
        ]
      }
    },
    {
      "type": "Feature",
      "properties": {
        "norad_id": 66473,
        "name": "STARLINK-35568",
        "group": "last-30-days",
        "lat": -2.749860358489103,
        "lon": -117.48939679338089,
        "alt_km": 410.8516956546582,
        "timestamp": "2025-12-14T16:47:39.435752+00:00",
        "meta_object_name": "STARLINK-35568",
        "meta_object_id": "2025-262T",
        "meta_epoch": "2025-12-11T07:39:08.069760",
        "meta_mean_motion": 15.50526439,
        "meta_eccentricity": 0.00047596,
        "meta_inclination": 42.9998,
        "meta_ra_of_asc_node": 79.3576,
        "meta_arg_of_pericenter": 252.6139,
        "meta_mean_anomaly": 107.4201,
        "meta_ephemeris_type": 0,
        "meta_classification_type": "U",
        "meta_norad_cat_id": 66473,
        "meta_element_set_no": 999,
        "meta_rev_at_epoch": 534,
        "meta_bstar": 0.0038259112,
        "meta_mean_motion_dot": 0.00230458,
        "meta_mean_motion_ddot": 0,
        "tle_line1": "1 66473U 25262T   25345.31884340  .00230458  00000+0  38259-2 0  9993",
        "tle_line2": "2 66473  42.9998  79.3576 0004759 252.6139 107.4201 15.50526439  5346"
      },
      "geometry": {
        "type": "Point",
        "coordinates": [
          -117.48939679338089,
          -2.749860358489103
        ]
      }
    },
    {
      "type": "Feature",
      "properties": {
        "norad_id": 66474,
        "name": "STARLINK-35620",
        "group": "last-30-days",
        "lat": -4.206817254767883,
        "lon": -115.92103572419194,
        "alt_km": 411.8374895684465,
        "timestamp": "2025-12-14T16:47:39.435763+00:00",
        "meta_object_name": "STARLINK-35620",
        "meta_object_id": "2025-262U",
        "meta_epoch": "2025-12-12T13:00:34.651008",
        "meta_mean_motion": 15.51135131,
        "meta_eccentricity": 0.00014651,
        "meta_inclination": 43.0009,
        "meta_ra_of_asc_node": 72.1929,
        "meta_arg_of_pericenter": 279.0822,
        "meta_mean_anomaly": 80.9873,
        "meta_ephemeris_type": 0,
        "meta_classification_type": "U",
        "meta_norad_cat_id": 66474,
        "meta_element_set_no": 999,
        "meta_rev_at_epoch": 553,
        "meta_bstar": 0.0027986206,
        "meta_mean_motion_dot": 0.00170828,
        "meta_mean_motion_ddot": 0,
        "tle_line1": "1 66474U 25262U   25346.54206772  .00170828  00000+0  27986-2 0  9996",
        "tle_line2": "2 66474  43.0009  72.1929 0001465 279.0822  80.9873 15.51135131  5535"
      },
      "geometry": {
        "type": "Point",
        "coordinates": [
          -115.92103572419194,
          -4.206817254767883
        ]
      }
    }
  ]
}